TRANSPORTER-11 OBJECT A 
1 60468U 24149A   26068.74646182  .00010774  00000+0  36054-3 0  9993
2 60468  97.3780 149.0949 0003110 191.0010 169.1164 15.31141332 86830
STARLINK-33764          
1 63510U 25071T   26068.48711560  .00024667  00000+0  84236-3 0  9994
2 63510  53.1574 141.1988 0001208  82.0317 278.0821 15.30193252 52710
